NORAD_CAT_ID,OBJECT_NAME,OBJECT_TYPE,EPOCH,MEAN_MOTION,ECCENTRICITY,INCLINATION,RA_OF_ASC_NODE,ARG_OF_PERICENTER,MEAN_ANOMALY,BSTAR,MEAN_MOTION_DOT,MEAN_MOTION_DDOT,TLE_LINE0,TLE_LINE1,TLE_LINE2,SEMIMAJOR_AXIS,PERIOD,APOGEE,PERIGEE,DECAYED
50203.0,STARLINK-3257,PAYLOAD,2021-12-23 14:00:01,15.98949714,0.0068334999999999,53.2175,341.8924,171.1874,286.1948,-0.0013688,-0.00887936,0.00026505,0 STARLINK-3257,1 50203U 21125AZ  21357.58334491 -.00887936  26505-3 -13688-2 0  9998,2 50203  53.2175 341.8924 0068335 171.1874 286.1948 15.98949714   993,6655.469,90.059,322.814,231.853,0.0
50203.0,STARLINK-3257,PAYLOAD,2021-12-24 06:00:00,15.97791201,0.0060832,53.2173,338.4696,174.3853,161.3271,-0.0016071999999999,-0.0091753,0.00027776,0 STARLINK-3257,1 50203U 21125AZ  21358.25001157 -.00917530  27776-3 -16072-2 0  9998,2 50203  53.2173 338.4696 0060832 174.3853 161.3271 15.97791201  1107,6658.685,90.124,321.056,240.044,0.0
50203.0,STARLINK-3257,PAYLOAD,2021-12-24 14:00:01,15.97195346,0.005803,53.2174,336.7592,175.68099999999995,278.1465,-0.0016554,-0.00895064,0.00026397,0 STARLINK-3257,1 50203U 21125AZ  21358.58334491 -.00895064  26397-3 -16554-2 0  9994,2 50203  53.2174 336.7592 0058030 175.6810 278.1465 15.97195346  1423,6660.340999999999,90.158,320.856,243.556,0.0
50203.0,STARLINK-3257,PAYLOAD,2021-12-24 22:00:00,15.96593297,0.0054799,53.2177,335.0495,177.0299,34.2113,-0.0016844,-0.00861676,0.00024496,0 STARLINK-3257,1 50203U 21125AZ  21358.91667824 -.00861676  24496-3 -16844-2 0  9992,2 50203  53.2177 335.0495 0054799 177.0299  34.2113 15.96593297  1219,6662.016,90.192,320.388,247.373,0.0
50203.0,STARLINK-3257,PAYLOAD,2021-12-25 06:00:00,15.96032943,0.0051111,53.2176,333.3452,178.998,148.9366,-0.0018909,-0.00916128,0.00027198,0 STARLINK-3257,1 50203U 21125AZ  21359.25001157 -.00916128  27198-3 -18909-2 0  9990,2 50203  53.2176 333.3452 0051111 178.9980 148.9366 15.96032943  1268,6663.575,90.224,319.498,251.382,0.0
50203.0,STARLINK-3257,PAYLOAD,2021-12-25 14:00:01,15.95442636,0.0048845,53.2173,331.639,180.8428,263.0929,-0.0019567,-0.00905487,0.00026471,0 STARLINK-3257,1 50203U 21125AZ  21359.58334491 -.00905487  26471-3 -19567-2 0  9996,2 50203  53.2173 331.6390 0048845 180.8428 263.0929 15.95442636  1319,6665.218000000003,90.257,319.64,254.527,0.0
50203.0,STARLINK-3257,PAYLOAD,2021-12-25 22:00:00,15.94837694,0.0045783,53.2175,329.934,181.7055,17.5325,-0.0019632,-0.00865032,0.00024229,0 STARLINK-3257,1 50203U 21125AZ  21359.91667824 -.00865032  24229-3 -19632-2 0  9995,2 50203  53.2175 329.9340 0045783 181.7055  17.5325 15.94837694  1368,6666.904,90.291,319.2920000000001,258.246,0.0
50203.0,STARLINK-3257,PAYLOAD,2021-12-26 06:00:02,15.94272789,0.0042118,53.2176,328.2339,184.2982,129.5893,-0.0021706,-0.00911024,0.00026448,0 STARLINK-3257,1 50203U 21125AZ  21360.25002315 -.00911024  26448-3 -21706-2 0  9995,2 50203  53.2176 328.2339 0042118 184.2982 129.5893 15.94272789  1424,6668.478,90.323,318.43,262.257,0.0
50203.0,STARLINK-3257,PAYLOAD,2021-12-26 14:00:01,15.93688439,0.0039862,53.2174,326.5319,186.5353,241.1728,-0.0022683,-0.00913195,0.00026407,0 STARLINK-3257,1 50203U 21125AZ  21360.58334491 -.00913195  26407-3 -22683-2 0  9995,2 50203  53.2174 326.5319 0039862 186.5353 241.1728 15.93688439  1475,6670.108,90.356,318.562,265.385,0.0
50203.0,STARLINK-3257,PAYLOAD,2021-12-26 22:00:00,15.93081495,0.0036754,53.2175,324.8316,188.0983,352.8002,-0.0022547,-0.00868224,0.00023965,0 STARLINK-3257,1 50203U 21125AZ  21360.91667824 -.00868224  23965-3 -22547-2 0  9998,2 50203  53.2175 324.8316 0036754 188.0983 352.8002 15.93081495  1527,6671.802,90.391,318.189,269.146,0.0
50203.0,STARLINK-3257,PAYLOAD,2021-12-27 06:00:00,15.92511159,0.0033633,53.2174,323.136,190.7551,102.6161,-0.0024448,-0.00902833,0.0002557,0 STARLINK-3257,1 50203U 21125AZ  21361.25001157 -.00902833  25570-3 -24448-2 0  9998,2 50203  53.2174 323.1360 0033633 190.7551 102.6161 15.92511159  1588,6673.395,90.423,317.705,272.816,0.0
50203.0,STARLINK-3257,PAYLOAD,2021-12-27 12:00:00,15.92069997,0.0032131,53.2173,321.8628,192.9262,94.3433,-0.0025036,-0.00898766,0.00025253,0 STARLINK-3257,1 50203U 21125AZ  21361.50001157 -.00898766  25253-3 -25036-2 0  9997,2 50203  53.2173 321.8628 0032131 192.9262  94.3433 15.92069997  1626,6674.628000000002,90.448,317.939,275.047,0.0
50203.0,STARLINK-3257,PAYLOAD,2021-12-27 14:00:01,15.91796392,0.00309,53.2179,321.4384,194.8561,210.3606,-0.0020024,-0.00707351,0.00016396,0 STARLINK-3257,1 50203U 21125AZ  21361.58334491 -.00707351  16396-3 -20024-2 0  9994,2 50203  53.2179 321.4384 0030900 194.8561 210.3606 15.91796392  1900,6675.393,90.464,317.885,276.631,0.0
50203.0,STARLINK-3257,PAYLOAD,2021-12-27 22:00:00,15.91328625,0.0028454,53.2178,319.7423,195.6941,320.5273,-0.0025706,-0.00878205,0.00024047,0 STARLINK-3257,1 50203U 21125AZ  21361.91667824 -.00878205  24047-3 -25706-2 0  9991,2 50203  53.2178 319.7423 0028454 195.6941 320.5273 15.91328625  1684,6676.701,90.49,317.564,279.568,0.0
50203.0,STARLINK-3257,PAYLOAD,2021-12-28 06:00:00,15.90581694,0.0025671,53.2181,318.0511,200.5261,66.1564,-0.0019842,-0.00649093,0.00013916,0 STARLINK-3257,1 50203U 21125AZ  21362.25001157 -.00649093  13916-3 -19842-2 0  9998,2 50203  53.2181 318.0511 0025671 200.5261  66.1564 15.90581694  1746,6678.791,90.533,317.801,283.511,0.0
50203.0,STARLINK-3257,PAYLOAD,2021-12-28 14:00:01,15.90178684,0.0023722,53.2174,316.3576,202.5123,173.7309,-0.0029085,-0.00924881,0.00026111,0 STARLINK-3257,1 50203U 21125AZ  21362.58334491 -.00924881  26111-3 -29085-2 0  9996,2 50203  53.2174 316.3576 0023722 202.5123 173.7309 15.90178684  1792,6679.919,90.556,317.631,285.938,0.0
50203.0,STARLINK-3257,PAYLOAD,2021-12-28 22:00:00,15.8957645,0.0020703,53.2175,314.6662,205.7118,279.496,-0.002905,-0.00890555,0.00024249,0 STARLINK-3257,1 50203U 21125AZ  21362.91667824 -.00890555  24249-3 -29050-2 0  9994,2 50203  53.2175 314.6662 0020703 205.7118 279.4960 15.89576450  1849,6681.606,90.59,317.3040000000001,289.639,0.0
50203.0,STARLINK-3257,PAYLOAD,2021-12-29 06:00:02,15.88986232,0.0017902,53.2177,312.9791,211.2824,22.2466,-0.0029794,-0.00882189,0.00023707,0 STARLINK-3257,1 50203U 21125AZ  21363.25002315 -.00882189  23707-3 -29794-2 0  9997,2 50203  53.2177 312.9791 0017902 211.2824  22.2466 15.88986232  1902,6683.261,90.624,317.09,293.1620000000001,0.0
50203.0,STARLINK-3257,PAYLOAD,2021-12-29 14:00:01,15.88418556,0.0016247,53.2176,311.2897,217.2501,123.8241,-0.0032065,-0.00920033,0.00025438,0 STARLINK-3257,1 50203U 21125AZ  21363.58335648 -.00920033  25438-3 -32065-2 0  9990,2 50203  53.2176 311.2897 0016247 217.2501 123.8241 15.88418556  1952,6684.853,90.656,317.579,295.857,0.0
50203.0,STARLINK-3257,PAYLOAD,2021-12-29 21:37:53,15.88039048,0.0015860999999999,53.2196,309.6834,222.5012,137.4788,-0.00047559,-0.00137167,1.6771e-05,0 STARLINK-3257,1 50203U 21125AZ  21363.90131172 -.00137167  16771-4 -47559-3 0  9996,2 50203  53.2196 309.6834 0015861 222.5012 137.4788 15.88039048  5151,6685.918000000002,90.678,318.388,297.1790000000001,0.0
50203.0,STARLINK-3257,PAYLOAD,2021-12-29 22:00:00,15.87828668,0.0013797,53.2176,309.6032,224.5651,223.2908,-0.0032803,-0.00911027,0.00024853,0 STARLINK-3257,1 50203U 21125AZ  21363.91667824 -.00911027  24853-3 -32803-2 0  9994,2 50203  53.2176 309.6032 0013797 224.5651 223.2908 15.87828668  2008,6686.509,90.69,317.599,299.148,0.0
50203.0,STARLINK-3257,PAYLOAD,2021-12-30 06:00:00,15.87144424,0.0011860999999999,53.218,307.9206,234.7133,319.329,-0.0027711,-0.00689583,0.0,0 STARLINK-3257,1 50203U 21125AZ  21364.25001157 -.00689583  00000-0 -27711-2 0  9999,2 50203  53.2180 307.9206 0011861 234.7133 319.3290 15.87144424  2052,6688.43,90.729,318.2290000000001,302.362,0.0
50203.0,STARLINK-3257,PAYLOAD,2021-12-30 14:00:01,15.86537397,0.0010093,53.218,306.2356,248.544,50.9529,-0.0027719,-0.00669394,0.0,0 STARLINK-3257,1 50203U 21125AZ  21364.58334491 -.00669394  00000-0 -27719-2 0  9991,2 50203  53.2180 306.2356 0010093 248.5440  50.9529 15.86537397  2383,6690.136,90.764,318.754,305.249,0.0
50203.0,STARLINK-3257,PAYLOAD,2021-12-30 21:48:55,15.86300445,0.0010465,53.2201,304.595,243.6284,116.3668,-0.001492,-0.00368405,0.0,0 STARLINK-3257,1 50203U 21125AZ  21364.90897814 -.00368405  00000-0 -14920-2 0  9999,2 50203  53.2201 304.5950 0010465 243.6284 116.3668 15.86300445  5312,6690.803000000001,90.777,319.6690000000001,305.666,0.0
50203.0,STARLINK-3257,PAYLOAD,2021-12-30 22:00:01,15.86076918,0.0009036,53.2178,304.5532,259.8009,144.4342,-0.0036415,-0.00842324,0.0,0 STARLINK-3257,1 50203U 21125AZ  21364.91668981 -.00842324  00000-0 -36415-2 0  9991,2 50203  53.2178 304.5532 0009036 259.8009 144.4342 15.86076918  2163,6691.431,90.79,319.342,307.25,0.0
50203.0,STARLINK-3257,PAYLOAD,2021-12-31 14:00:01,15.84888583,0.0004643,53.2175,301.1937,268.4811,343.05,-0.0037212,-0.00811836,0.0,0 STARLINK-3257,1 50203U 21125AZ  21365.58334491 -.00811836  00000-0 -37212-2 0  9991,2 50203  53.2175 301.1937 0004643 268.4811 343.0500 15.84888583  2540,6694.775,90.858,319.749,313.532,0.0
50203.0,STARLINK-3257,PAYLOAD,2021-12-31 20:30:39,15.84981708,0.0008103,53.2205,299.8311,264.7662,95.2439,-0.00040285,-0.00096469,0.0,0 STARLINK-3257,1 50203U 21125AZ  21365.85462325 -.00096469  00000-0 -40285-3 0  9991,2 50203  53.2205 299.8311 0008103 264.7662  95.2439 15.84981708  5465,6694.513000000001,90.853,321.803,310.954,0.0
50203.0,STARLINK-3257,PAYLOAD,2021-12-31 22:00:00,15.84306816,0.0002653,53.2175,299.5162,264.1005,90.0514,-0.0038651,-0.00818239,0.0,0 STARLINK-3257,1 50203U 21125AZ  21365.91667824 -.00818239  00000-0 -38651-2 0  9999,2 50203  53.2175 299.5162 0002653 264.1005  90.0514 15.84306816  2321,6696.4140000000025,90.891,320.056,316.503,0.0
50203.0,STARLINK-3257,PAYLOAD,2022-01-01 12:00:00,15.83288864,5.84e-05,53.2176,296.5842,115.4066,326.6375,-0.0041268,-0.00830115,0.0,0 STARLINK-3257,1 50203U 21125AZ  22001.50001157 -.00830115  00000-0 -41268-2 0  9998,2 50203  53.2176 296.5842 0000584 115.4066 326.6375 15.83288864  2414,6699.284000000002,90.95,321.54,320.758,0.0
